*******************************************************************************
JPL/HORIZONS              3665 Fitzgerald (1979 FE)        2023-Sep-04 11:24:51
Rec #:    3665 (+COV) Soln.date: 2023-Aug-23_12:30:19   # obs: 5521 (1941-2023)
 
IAU76/J2000 helio. ecliptic osc. elements (au, days, deg., period=Julian yrs):
 
  EPOCH=  2458071.5 ! 2017-Nov-14.00 (TDB)         Residual RMS= .21926
   EC= .08905587061149307  QR= 2.202503526253254   TP= 2458549.8180289464
   OM= 115.183462381132    W=  280.6312952856787   IN= 15.06980664113502
   A= 2.417825040193999    MA= 234.6040476600485   ADIST= 2.633146554134744
   PER= 3.75963            N= .262160205           ANGMOM= .026641878
   DAN= 2.35988            DDN= 2.43872            L= 36.1843074
   B= -14.8051582          MOID= 1.26742995        TP= 2019-Mar-07.3180289464
 
Asteroid physical parameters (km, seconds, rotational period in hours):
   GM= n.a.                RAD= 3.847              ROTPER= 2.4141
   H= 13.21                G= .150                 B-V= n.a.
                           ALBEDO= .205            STYP= n.a.

ASTEROID comments: 
1: soln ref.= JPL#52, OCC=0
2: source=ORB
*******************************************************************************


*******************************************************************************
Ephemeris / API_USER Mon Sep  4 11:24:51 2023 Pasadena, USA      / Horizons
*******************************************************************************
Target body name: 3665 Fitzgerald (1979 FE)       {source: JPL#52}
Center body name: Solar System Barycenter (0)     {source: DE441}
Center-site name: BODY CENTER
*******************************************************************************
Start time      : A.D. 2023-Aug-12 00:00:00.0000 TDB
Stop  time      : A.D. 2023-Aug-13 00:00:00.0000 TDB
Step-size       : 2880 minutes
*******************************************************************************
Center geodetic : 0.0, 0.0, 0.0                   {E-lon(deg),Lat(deg),Alt(km)}
Center cylindric: 0.0, 0.0, 0.0                   {E-lon(deg),Dxy(km),Dz(km)}
Center radii    : (undefined)
Small perturbers: Yes                             {source: SB441-N16}
Output units    : KM-S
Calendar mode   : Mixed Julian/Gregorian
Output type     : GEOMETRIC cartesian states
Output format   : 2 (position and velocity)
Reference frame : Ecliptic of J2000.0
*******************************************************************************
Initial IAU76/J2000 heliocentric ecliptic osculating elements (au, days, deg.):
  EPOCH=  2458071.5 ! 2017-Nov-14.00 (TDB)         Residual RMS= .21926        
   EC= .08905587061149307  QR= 2.202503526253254   TP= 2458549.8180289464      
   OM= 115.183462381132    W=  280.6312952856787   IN= 15.06980664113502       
  Equivalent ICRF heliocentric cartesian coordinates (au, au/d):
   X=-2.849354620057900E-01  Y=-2.447879090375075E+00  Z=-6.717821948258881E-01
  VX= 1.015075115689759E-02 VY= 2.546087039536592E-04 VZ=-2.490867066720502E-03
Asteroid physical parameters (km, seconds, rotational period in hours):        
   GM= n.a.                RAD= 3.847              ROTPER= 2.4141              
   H= 13.21                G= .150                 B-V= n.a.                   
                           ALBEDO= .205            STYP= n.a.                  
*******************************************************************************
JDTDB
   X     Y     Z
   VX    VY    VZ
*******************************************************************************
$$SOE
2460168.500000000 = A.D. 2023-Aug-12 00:00:00.0000 TDB 
 X =-1.210637247549815E+08 Y = 3.291638588484225E+08 Z =-8.432913817586526E+06
 VX=-1.846577627781564E+01 VY=-4.839383939338887E+00 VZ= 5.052867205912532E+00
$$EOE
*******************************************************************************
 
TIME

  Barycentric Dynamical Time ("TDB" or T_eph) output was requested. This
continuous coordinate time is equivalent to the relativistic proper time
of a clock at rest in a reference frame co-moving with the solar system
barycenter but outside the system's gravity well. It is the independent
variable in the solar system relativistic equations of motion.

  TDB runs at a uniform rate of one SI second per second and is independent
of irregularities in Earth's rotation.
 
CALENDAR SYSTEM

  Mixed calendar mode was active such that calendar dates after AD 1582-Oct-15
(if any) are in the modern Gregorian system. Dates prior to 1582-Oct-5 (if any)
are in the Julian calendar system, which is automatically extended for dates
prior to its adoption on 45-Jan-1 BC.  The Julian calendar is useful for
matching historical dates. The Gregorian calendar more accurately corresponds
to the Earth's orbital motion and seasons. A "Gregorian-only" calendar mode is
available if such physical events are the primary interest.

REFERENCE FRAME AND COORDINATES

  Ecliptic at the standard reference epoch

    Reference epoch: J2000.0
    X-Y plane: adopted Earth orbital plane at the reference epoch
               Note: IAU76 obliquity of 84381.448 arcseconds wrt ICRF X-Y plane
    X-axis   : ICRF
    Z-axis   : perpendicular to the X-Y plane in the directional (+ or -) sense
               of Earth's north pole at the reference epoch.

  Symbol meaning:

    JDTDB    Julian Day Number, Barycentric Dynamical Time
      X      X-component of position vector (km)
      Y      Y-component of position vector (km)
      Z      Z-component of position vector (km)
      VX     X-component of velocity vector (km/sec)                           
      VY     Y-component of velocity vector (km/sec)                           
      VZ     Z-component of velocity vector (km/sec)                           

ABERRATIONS AND CORRECTIONS

 Geometric state vectors have NO corrections or aberrations applied.

Computations by ...

    Solar System Dynamics Group, Horizons On-Line Ephemeris System
    4800 Oak Grove Drive, Jet Propulsion Laboratory
    Pasadena, CA  91109   USA

    General site: https://ssd.jpl.nasa.gov/
    Mailing list: https://ssd.jpl.nasa.gov/email_list.html
    System news : https://ssd.jpl.nasa.gov/horizons/news.html
    User Guide  : https://ssd.jpl.nasa.gov/horizons/manual.html
    Connect     : browser        https://ssd.jpl.nasa.gov/horizons/app.html#/x
                  API            https://ssd-api.jpl.nasa.gov/doc/horizons.html
                  command-line   telnet ssd.jpl.nasa.gov 6775
                  e-mail/batch   https://ssd.jpl.nasa.gov/ftp/ssd/hrzn_batch.txt
                  scripts        https://ssd.jpl.nasa.gov/ftp/ssd/SCRIPTS
    Author      : Jon.D.Giorgini@jpl.nasa.gov
*******************************************************************************
